[{"OBJECT_NAME":"STARLINK-36417","OBJECT_ID":"2026-014B","EPOCH":"2026-03-17T05:20:53.395872","MEAN_MOTION":15.75190725,"ECCENTRICITY":0.00032221,"INCLINATION":97.2848,"RA_OF_ASC_NODE":321.4387,"ARG_OF_PERICENTER":50.2138,"MEAN_ANOMALY":309.9411,"EPHEMERIS_TYPE":0,"CLASSIFICATION_TYPE":"U","NORAD_CAT_ID":67533,"ELEMENT_SET_NO":999,"REV_AT_EPOCH":975,"BSTAR":0.0015321621,"MEAN_MOTION_DOT":0.00234834,"MEAN_MOTION_DDOT":0},{"OBJECT_NAME":"STARLINK-36576","OBJECT_ID":"2026-014C","EPOCH":"2026-03-17T04:29:03.418368","MEAN_MOTION":15.75173607,"ECCENTRICITY":0.00034407,"INCLINATION":97.2846,"RA_OF_ASC_NODE":321.4896,"ARG_OF_PERICENTER":54.1596,"MEAN_ANOMALY":305.9988,"EPHEMERIS_TYPE":0,"CLASSIFICATION_TYPE":"U","NORAD_CAT_ID":67534,"ELEMENT_SET_NO":999,"REV_AT_EPOCH":975,"BSTAR":0.0014997665,"MEAN_MOTION_DOT":0.0022956,"MEAN_MOTION_DDOT":0},{"OBJECT_NAME":"STARLINK-36574","OBJECT_ID":"2026-014D","EPOCH":"2026-03-17T05:43:45.646464","MEAN_MOTION":15.752145,"ECCENTRICITY":0.00019074,"INCLINATION":97.285,"RA_OF_ASC_NODE":321.5718,"ARG_OF_PERICENTER":91.7258,"MEAN_ANOMALY":268.4226,"EPHEMERIS_TYPE":0,"CLASSIFICATION_TYPE":"U","NORAD_CAT_ID":67535,"ELEMENT_SET_NO":999,"REV_AT_EPOCH":976,"BSTAR":0.00073749902,"MEAN_MOTION_DOT":0.00111441,"MEAN_MOTION_DDOT":0},{"OBJECT_NAME":"STARLINK-36572","OBJECT_ID":"2026-014E","EPOCH":"2026-03-17T05:01:04.258848","MEAN_MOTION":15.75196323,"ECCENTRICITY":0.00029003,"INCLINATION":97.2832,"RA_OF_ASC_NODE":321.4567,"ARG_OF_PERICENTER":80.6598,"MEAN_ANOMALY":279.4995,"EPHEMERIS_TYPE":0,"CLASSIFICATION_TYPE":"U","NORAD_CAT_ID":67536,"ELEMENT_SET_NO":999,"REV_AT_EPOCH":975,"BSTAR":0.0012185087,"MEAN_MOTION_DOT":0.00185696,"MEAN_MOTION_DDOT":0},{"OBJECT_NAME":"STARLINK-36561","OBJECT_ID":"2026-014F","EPOCH":"2026-03-17T05:09:41.850144","MEAN_MOTION":15.75189445,"ECCENTRICITY":0.00014419,"INCLINATION":97.2849,"RA_OF_ASC_NODE":321.4488,"ARG_OF_PERICENTER":125.3171,"MEAN_ANOMALY":234.8229,"EPHEMERIS_TYPE":0,"CLASSIFICATION_TYPE":"U","NORAD_CAT_ID":67537,"ELEMENT_SET_NO":999,"REV_AT_EPOCH":975,"BSTAR":0.0013445173,"MEAN_MOTION_DOT":0.00205304,"MEAN_MOTION_DDOT":0},{"OBJECT_NAME":"STARLINK-36397","OBJECT_ID":"2026-014G","EPOCH":"2026-03-17T05:15:17.308512","MEAN_MOTION":15.75180337,"ECCENTRICITY":0.00013057,"INCLINATION":97.2852,"RA_OF_ASC_NODE":321.4438,"ARG_OF_PERICENTER":126.1448,"MEAN_ANOMALY":233.9939,"EPHEMERIS_TYPE":0,"CLASSIFICATION_TYPE":"U","NORAD_CAT_ID":67538,"ELEMENT_SET_NO":999,"REV_AT_EPOCH":975,"BSTAR":0.0013619038,"MEAN_MOTION_DOT":0.00207943,"MEAN_MOTION_DDOT":0},{"OBJECT_NAME":"STARLINK-36573","OBJECT_ID":"2026-014H","EPOCH":"2026-03-17T05:49:20.709120","MEAN_MOTION":15.7523705,"ECCENTRICITY":0.00012256,"INCLINATION":97.2851,"RA_OF_ASC_NODE":321.5662,"ARG_OF_PERICENTER":95.512,"MEAN_ANOMALY":264.6286,"EPHEMERIS_TYPE":0,"CLASSIFICATION_TYPE":"U","NORAD_CAT_ID":67539,"ELEMENT_SET_NO":999,"REV_AT_EPOCH":976,"BSTAR":0.00095528845,"MEAN_MOTION_DOT":0.00145098,"MEAN_MOTION_DDOT":0},{"OBJECT_NAME":"STARLINK-36585","OBJECT_ID":"2026-014J","EPOCH":"2026-03-17T05:03:35.629056","MEAN_MOTION":15.75235493,"ECCENTRICITY":0.00017972,"INCLINATION":97.2847,"RA_OF_ASC_NODE":321.4538,"ARG_OF_PERICENTER":176.692,"MEAN_ANOMALY":183.4358,"EPHEMERIS_TYPE":0,"CLASSIFICATION_TYPE":"U","NORAD_CAT_ID":67540,"ELEMENT_SET_NO":999,"REV_AT_EPOCH":975,"BSTAR":0.0010658505,"MEAN_MOTION_DOT":0.00162226,"MEAN_MOTION_DDOT":0},{"OBJECT_NAME":"STARLINK-36579","OBJECT_ID":"2026-014K","EPOCH":"2026-03-17T04:52:25.883040","MEAN_MOTION":15.75188527,"ECCENTRICITY":0.00028734,"INCLINATION":97.2835,"RA_OF_ASC_NODE":321.4653,"ARG_OF_PERICENTER":70.5361,"MEAN_ANOMALY":289.6214,"EPHEMERIS_TYPE":0,"CLASSIFICATION_TYPE":"U","NORAD_CAT_ID":67541,"ELEMENT_SET_NO":999,"REV_AT_EPOCH":975,"BSTAR":0.0012503013,"MEAN_MOTION_DOT":0.00190589,"MEAN_MOTION_DDOT":0},{"OBJECT_NAME":"STARLINK-35934","OBJECT_ID":"2026-014L","EPOCH":"2026-03-17T05:35:07.173888","MEAN_MOTION":15.7519514,"ECCENTRICITY":0.00014546,"INCLINATION":97.285,"RA_OF_ASC_NODE":321.5799,"ARG_OF_PERICENTER":95.732,"MEAN_ANOMALY":264.4112,"EPHEMERIS_TYPE":0,"CLASSIFICATION_TYPE":"U","NORAD_CAT_ID":67542,"ELEMENT_SET_NO":999,"REV_AT_EPOCH":975,"BSTAR":0.0014313874,"MEAN_MOTION_DOT":0.00218985,"MEAN_MOTION_DDOT":0},{"OBJECT_NAME":"STARLINK-36581","OBJECT_ID":"2026-014M","EPOCH":"2026-03-17T05:46:19.447968","MEAN_MOTION":15.75252616,"ECCENTRICITY":0.00023782,"INCLINATION":97.2848,"RA_OF_ASC_NODE":321.5684,"ARG_OF_PERICENTER":54.0028,"MEAN_ANOMALY":306.1458,"EPHEMERIS_TYPE":0,"CLASSIFICATION_TYPE":"U","NORAD_CAT_ID":67543,"ELEMENT_SET_NO":999,"REV_AT_EPOCH":976,"BSTAR":0.001613602,"MEAN_MOTION_DOT":0.00248361,"MEAN_MOTION_DDOT":0},{"OBJECT_NAME":"STARLINK-36565","OBJECT_ID":"2026-014N","EPOCH":"2026-03-17T05:54:56.449152","MEAN_MOTION":15.75192823,"ECCENTRICITY":0.00018559,"INCLINATION":97.2855,"RA_OF_ASC_NODE":321.5612,"ARG_OF_PERICENTER":62.0638,"MEAN_ANOMALY":298.0815,"EPHEMERIS_TYPE":0,"CLASSIFICATION_TYPE":"U","NORAD_CAT_ID":67544,"ELEMENT_SET_NO":999,"REV_AT_EPOCH":976,"BSTAR":0.00084028052,"MEAN_MOTION_DOT":0.00127104,"MEAN_MOTION_DDOT":0},{"OBJECT_NAME":"STARLINK-36583","OBJECT_ID":"2026-014P","EPOCH":"2026-03-17T04:58:01.312032","MEAN_MOTION":15.75194054,"ECCENTRICITY":0.0002727,"INCLINATION":97.2844,"RA_OF_ASC_NODE":321.4597,"ARG_OF_PERICENTER":78.0715,"MEAN_ANOMALY":282.0856,"EPHEMERIS_TYPE":0,"CLASSIFICATION_TYPE":"U","NORAD_CAT_ID":67545,"ELEMENT_SET_NO":999,"REV_AT_EPOCH":975,"BSTAR":0.0013501365,"MEAN_MOTION_DOT":0.00206243,"MEAN_MOTION_DDOT":0},{"OBJECT_NAME":"STARLINK-36580","OBJECT_ID":"2026-014Q","EPOCH":"2026-03-17T04:32:05.926272","MEAN_MOTION":15.7522573,"ECCENTRICITY":0.0001153,"INCLINATION":97.2845,"RA_OF_ASC_NODE":321.4852,"ARG_OF_PERICENTER":70.7561,"MEAN_ANOMALY":289.3829,"EPHEMERIS_TYPE":0,"CLASSIFICATION_TYPE":"U","NORAD_CAT_ID":67546,"ELEMENT_SET_NO":999,"REV_AT_EPOCH":975,"BSTAR":0.001498937,"MEAN_MOTION_DOT":0.00229926,"MEAN_MOTION_DDOT":0},{"OBJECT_NAME":"STARLINK-36584","OBJECT_ID":"2026-014R","EPOCH":"2026-03-17T07:09:38.810304","MEAN_MOTION":15.75210167,"ECCENTRICITY":0.00017938,"INCLINATION":97.285,"RA_OF_ASC_NODE":321.6425,"ARG_OF_PERICENTER":106.3554,"MEAN_ANOMALY":253.7908,"EPHEMERIS_TYPE":0,"CLASSIFICATION_TYPE":"U","NORAD_CAT_ID":67547,"ELEMENT_SET_NO":999,"REV_AT_EPOCH":977,"BSTAR":0.0014714893,"MEAN_MOTION_DOT":0.00225444,"MEAN_MOTION_DDOT":0},{"OBJECT_NAME":"STARLINK-36586","OBJECT_ID":"2026-014S","EPOCH":"2026-03-17T05:06:40.146624","MEAN_MOTION":15.75187471,"ECCENTRICITY":0.00025523,"INCLINATION":97.2835,"RA_OF_ASC_NODE":321.6071,"ARG_OF_PERICENTER":73.9802,"MEAN_ANOMALY":286.1744,"EPHEMERIS_TYPE":0,"CLASSIFICATION_TYPE":"U","NORAD_CAT_ID":67548,"ELEMENT_SET_NO":999,"REV_AT_EPOCH":976,"BSTAR":0.0013275727,"MEAN_MOTION_DOT":0.00202647,"MEAN_MOTION_DDOT":0}]
