STARLINK-36417          
1 67533U 26014B   26076.22284023  .00234834  00000+0  15322-2 0  9999
2 67533  97.2848 321.4387 0003222  50.2138 309.9411 15.75190725  9750
STARLINK-36576          
1 67534U 26014C   26076.18684512  .00229560  00000+0  14998-2 0  9990
2 67534  97.2846 321.4896 0003440  54.1596 305.9988 15.75173607  9752
STARLINK-36574          
1 67535U 26014D   26076.23872276  .00111441  00000+0  73750-3 0  9993
2 67535  97.2850 321.5718 0001907  91.7258 268.4226 15.75214500  9767
STARLINK-36572          
1 67536U 26014E   26076.20907707  .00185696  00000+0  12185-2 0  9996
2 67536  97.2832 321.4567 0002900  80.6598 279.4995 15.75196323  9753
STARLINK-36561          
1 67537U 26014F   26076.21506771  .00205304  00000+0  13445-2 0  9993
2 67537  97.2849 321.4488 0001441 125.3171 234.8229 15.75189445  9759
STARLINK-36397          
1 67538U 26014G   26076.21895033  .00207943  00000+0  13619-2 0  9990
2 67538  97.2852 321.4438 0001305 126.1448 233.9939 15.75180337  9753
STARLINK-36573          
1 67539U 26014H   26076.24260080  .00145098  00000+0  95529-3 0  9995
2 67539  97.2851 321.5662 0001225  95.5120 264.6286 15.75237050  9762
STARLINK-36585          
1 67540U 26014J   26076.21082904  .00162226  00000+0  10659-2 0  9993
2 67540  97.2847 321.4538 0001797 176.6920 183.4358 15.75235493  9759
STARLINK-36579          
1 67541U 26014K   26076.20307735  .00190589  00000+0  12503-2 0  9998
2 67541  97.2835 321.4653 0002873  70.5361 289.6214 15.75188527  9757
STARLINK-35934          
1 67542U 26014L   26076.23272192  .00218985  00000+0  14314-2 0  9993
2 67542  97.2850 321.5799 0001454  95.7320 264.4112 15.75195140  9752
STARLINK-36581          
1 67543U 26014M   26076.24050287  .00248361  00000+0  16136-2 0  9999
2 67543  97.2848 321.5684 0002378  54.0028 306.1458 15.75252616  9762
STARLINK-36565          
1 67544U 26014N   26076.24648668  .00127104  00000+0  84028-3 0  9993
2 67544  97.2855 321.5612 0001855  62.0638 298.0815 15.75192823  9766
STARLINK-36583          
1 67545U 26014P   26076.20695963  .00206243  00000+0  13501-2 0  9999
2 67545  97.2844 321.4597 0002727  78.0715 282.0856 15.75194054  9753
STARLINK-36580          
1 67546U 26014Q   26076.18895748  .00229926  00000+0  14989-2 0  9994
2 67546  97.2845 321.4852 0001153  70.7561 289.3829 15.75225730  9755
STARLINK-36584          
1 67547U 26014R   26076.29836586  .00225444  00000+0  14715-2 0  9990
2 67547  97.2850 321.6425 0001793 106.3554 253.7908 15.75210167  9771
STARLINK-36586          
1 67548U 26014S   26076.21296466  .00202647  00000+0  13276-2 0  9991
2 67548  97.2835 321.6071 0002552  73.9802 286.1744 15.75187471  9769
